start=new Date('2021-08-22T00:00:00.000Z').valueOf();
sats=[{"OBJECT_ID":"2021-044U","MEAN_MOTION_DDOT":"0.0000000000000","RCS_SIZE":"LARGE","EPHEMERIS_TYPE":"0","CLASSIFICATION_TYPE":"U","APOAPSIS":"548.096","MEAN_MOTION_DOT":"-0.00001114","SEMIMAJOR_AXIS":"6925.358","TLE_LINE2":"2 48656  53.0565  17.3021 0001260 120.0428 240.0686 15.06396909 13384","GP_ID":"183215384","REV_AT_EPOCH":"1338","ELEMENT_SET_NO":"999","ARG_OF_PERICENTER":"120.0428","LAUNCH_DATE":"2021-05-26","COUNTRY_CODE":"US","NORAD_CAT_ID":"48656","ECCENTRICITY":"0.00012600","OBJECT_TYPE":"PAYLOAD","INCLINATION":"53.0565","TIME_SYSTEM":"UTC","BSTAR":"-0.00005588000000","SITE":"AFETR","MEAN_ANOMALY":"240.0686","REF_FRAME":"TEME","DECAY_DATE":null,"FILE":"3101032","RA_OF_ASC_NODE":"17.3021","MEAN_ELEMENT_THEORY":"SGP4","PERIAPSIS":"546.350","PERIOD":"95.592","CENTER_NAME":"EARTH","TLE_LINE1":"1 48656U 21044U   21233.87276723 -.00001114  00000-0 -55880-4 0  9992","EPOCH":"2021-08-21T20:56:47.088672","MEAN_MOTION":"15.06396909","OBJECT_NAME":"STARLINK-2701"},{"CENTER_NAME":"EARTH","TLE_LINE1":"1 48657U 21044V   21233.86908879  .00000576  00000-0  57519-4 0  9996","MEAN_MOTION":"15.06405247","OBJECT_NAME":"STARLINK-2734","EPOCH":"2021-08-21T20:51:29.271456","DECAY_DATE":null,"FILE":"3101097","REF_FRAME":"TEME","PERIAPSIS":"546.344","PERIOD":"95.592","RA_OF_ASC_NODE":"17.3190","MEAN_ELEMENT_THEORY":"SGP4","INCLINATION":"53.0566","TIME_SYSTEM":"UTC","BSTAR":"0.00005751900000","MEAN_ANOMALY":"232.0176","SITE":"AFETR","NORAD_CAT_ID":"48657","OBJECT_TYPE":"PAYLOAD","ECCENTRICITY":"0.00012320","ELEMENT_SET_NO":"999","LAUNCH_DATE":"2021-05-26","COUNTRY_CODE":"US","ARG_OF_PERICENTER":"128.0924","REV_AT_EPOCH":"1428","MEAN_MOTION_DOT":"0.00000576","SEMIMAJOR_AXIS":"6925.332","APOAPSIS":"548.051","GP_ID":"183216676","TLE_LINE2":"2 48657  53.0566  17.3190 0001232 128.0924 232.0176 15.06405247 14282","RCS_SIZE":"LARGE","OBJECT_ID":"2021-044V","MEAN_MOTION_DDOT":"0.0000000000000","EPHEMERIS_TYPE":"0","CLASSIFICATION_TYPE":"U"},{"EPHEMERIS_TYPE":"0","CLASSIFICATION_TYPE":"U","RCS_SIZE":"LARGE","OBJECT_ID":"2021-044W","MEAN_MOTION_DDOT":"0.0000000000000","GP_ID":"183217194","TLE_LINE2":"2 48658  53.0575  17.3398 0001364 108.8749 251.2388 15.06393885 14282","MEAN_MOTION_DOT":"0.00000876","SEMIMAJOR_AXIS":"6925.367","APOAPSIS":"548.177","REV_AT_EPOCH":"1428","LAUNCH_DATE":"2021-05-26","COUNTRY_CODE":"US","ARG_OF_PERICENTER":"108.8749","ELEMENT_SET_NO":"999","OBJECT_TYPE":"PAYLOAD","ECCENTRICITY":"0.00013640","NORAD_CAT_ID":"48658","BSTAR":"0.00007770600000","MEAN_ANOMALY":"251.2388","SITE":"AFETR","INCLINATION":"53.0575","TIME_SYSTEM":"UTC","PERIAPSIS":"546.288","PERIOD":"95.593","RA_OF_ASC_NODE":"17.3398","MEAN_ELEMENT_THEORY":"SGP4","FILE":"3101080","DECAY_DATE":null,"REF_FRAME":"TEME","EPOCH":"2021-08-21T20:46:10.477056","TLE_LINE1":"1 48658U 21044W   21233.86539904  .00000876  00000-0  77706-4 0  9999","MEAN_MOTION":"15.06393885","OBJECT_NAME":"STARLINK-2647","CENTER_NAME":"EARTH"},{"APOAPSIS":"548.085","MEAN_MOTION_DOT":"0.00000778","SEMIMAJOR_AXIS":"6925.351","TLE_LINE2":"2 48659  53.0571  17.0558 0001255 126.9756 233.1348 15.06399352 14237","GP_ID":"183216686","OBJECT_ID":"2021-044X","MEAN_MOTION_DDOT":"0.0000000000000","RCS_SIZE":"LARGE","EPHEMERIS_TYPE":"0","CLASSIFICATION_TYPE":"U","ELEMENT_SET_NO":"999","ARG_OF_PERICENTER":"126.9756","LAUNCH_DATE":"2021-05-26","COUNTRY_CODE":"US","REV_AT_EPOCH":"1423","INCLINATION":"53.0571","TIME_SYSTEM":"UTC","BSTAR":"0.00007111600000","SITE":"AFETR","MEAN_ANOMALY":"233.1348","NORAD_CAT_ID":"48659","ECCENTRICITY":"0.00012550","OBJECT_TYPE":"PAYLOAD","CENTER_NAME":"EARTH","TLE_LINE1":"1 48659U 21044X   21233.92805894  .00000778  00000-0  71116-4 0  9991","MEAN_MOTION":"15.06399352","OBJECT_NAME":"STARLINK-2717","EPOCH":"2021-08-21T22:16:24.292416","REF_FRAME":"TEME","FILE":"3101080","DECAY_DATE":null,"RA_OF_ASC_NODE":"17.0558","MEAN_ELEMENT_THEORY":"SGP4","PERIAPSIS":"546.346","PERIOD":"95.592"},{"COUNTRY_CODE":"US","LAUNCH_DATE":"2021-05-26","ARG_OF_PERICENTER":"118.2857","ELEMENT_SET_NO":"999","REV_AT_EPOCH":"1423","GP_ID":"183216694","TLE_LINE2":"2 48660  53.0567  17.0712 0001274 118.2857 241.8261 15.06403831 14231","SEMIMAJOR_AXIS":"6925.337","MEAN_MOTION_DOT":"0.00000714","APOAPSIS":"548.084","CLASSIFICATION_TYPE":"U","EPHEMERIS_TYPE":"0","RCS_SIZE":"LARGE","MEAN_MOTION_DDOT":"0.0000000000000","OBJECT_ID":"2021-044Y","MEAN_MOTION":"15.06403831","TLE_LINE1":"1 48660U 21044Y   21233.92436159  .00000714  00000-0  66789-4 0  9997","OBJECT_NAME":"STARLINK-2688","EPOCH":"2021-08-21T22:11:04.841376","CENTER_NAME":"EARTH","PERIOD":"95.592","PERIAPSIS":"546.320","MEAN_ELEMENT_THEORY":"SGP4","RA_OF_ASC_NODE":"17.0712","FILE":"3101080","DECAY_DATE":null,"REF_FRAME":"TEME","SITE":"AFETR","MEAN_ANOMALY":"241.8261","BSTAR":"0.00006678900000","TIME_SYSTEM":"UTC","INCLINATION":"53.0567","OBJECT_TYPE":"PAYLOAD","ECCENTRICITY":"0.00012740","NORAD_CAT_ID":"48660"},{"PERIAPSIS":"546.323","PERIOD":"95.593","RA_OF_ASC_NODE":"5.9803","MEAN_ELEMENT_THEORY":"SGP4","DECAY_DATE":null,"FILE":"3101092","REF_FRAME":"TEME","TLE_LINE1":"1 48661U 21044Z   21234.16667824  .00027688  00000-0  18715-2 0  9993","OBJECT_NAME":"STARLINK-2708","MEAN_MOTION":"15.06378587","EPOCH":"2021-08-22T04:00:00.999936","CENTER_NAME":"EARTH","OBJECT_TYPE":"PAYLOAD","ECCENTRICITY":"0.00013810","NORAD_CAT_ID":"48661","BSTAR":"0.00187150000000","MEAN_ANOMALY":"127.8199","SITE":"AFETR","INCLINATION":"53.0554","TIME_SYSTEM":"UTC","REV_AT_EPOCH":"1447","LAUNCH_DATE":"2021-05-26","COUNTRY_CODE":"US","ARG_OF_PERICENTER":"102.0330","ELEMENT_SET_NO":"999","EPHEMERIS_TYPE":"0","CLASSIFICATION_TYPE":"U","RCS_SIZE":"LARGE","OBJECT_ID":"2021-044Z","MEAN_MOTION_DDOT":"0.0000000000000","GP_ID":"183217222","TLE_LINE2":"2 48661  53.0554   5.9803 0001381 102.0330 127.8199 15.06378587 14479","MEAN_MOTION_DOT":"0.00027688","SEMIMAJOR_AXIS":"6925.414","APOAPSIS":"548.236"},{"BSTAR":"-0.00295890000000","SITE":"AFETR","MEAN_ANOMALY":"237.1582","INCLINATION":"53.0547","TIME_SYSTEM":"UTC","OBJECT_TYPE":"PAYLOAD","ECCENTRICITY":"0.00012720","NORAD_CAT_ID":"48662","OBJECT_NAME":"STARLINK-2726","TLE_LINE1":"1 48662U 21044AA  21233.91668981 -.00044113  00000-0 -29589-2 0  9996","MEAN_MOTION":"15.06426626","EPOCH":"2021-08-21T22:00:01.999584","CENTER_NAME":"EARTH","PERIAPSIS":"546.251","PERIOD":"95.590","RA_OF_ASC_NODE":"7.1051","MEAN_ELEMENT_THEORY":"SGP4","FILE":"3101032","DECAY_DATE":null,"REF_FRAME":"TEME","GP_ID":"183215300","TLE_LINE2":"2 48662  53.0547   7.1051 0001272  96.2864 237.1582 15.06426626  3596","MEAN_MOTION_DOT":"-0.00044113","SEMIMAJOR_AXIS":"6925.267","APOAPSIS":"548.013","EPHEMERIS_TYPE":"0","CLASSIFICATION_TYPE":"U","RCS_SIZE":"LARGE","OBJECT_ID":"2021-044AA","MEAN_MOTION_DDOT":"0.0000000000000","LAUNCH_DATE":"2021-05-26","COUNTRY_CODE":"US","ARG_OF_PERICENTER":"96.2864","ELEMENT_SET_NO":"999","REV_AT_EPOCH":"359"},{"CLASSIFICATION_TYPE":"U","EPHEMERIS_TYPE":"0","RCS_SIZE":"LARGE","MEAN_MOTION_DDOT":"0.0000000000000","OBJECT_ID":"2021-044AB","GP_ID":"183215471","TLE_LINE2":"2 48663  53.0535   7.1025 0001245  97.2817 256.1778 15.06421765  3603","SEMIMAJOR_AXIS":"6925.282","MEAN_MOTION_DOT":"-0.00044670","APOAPSIS":"548.009","REV_AT_EPOCH":"360","COUNTRY_CODE":"US","LAUNCH_DATE":"2021-05-26","ARG_OF_PERICENTER":"97.2817","ELEMENT_SET_NO":"999","OBJECT_TYPE":"PAYLOAD","ECCENTRICITY":"0.00012450","NORAD_CAT_ID":"48663","SITE":"AFETR","MEAN_ANOMALY":"256.1778","BSTAR":"-0.00299710000000","TIME_SYSTEM":"UTC","INCLINATION":"53.0535","PERIOD":"95.591","PERIAPSIS":"546.285","MEAN_ELEMENT_THEORY":"SGP4","RA_OF_ASC_NODE":"7.1025","DECAY_DATE":null,"FILE":"3101032","REF_FRAME":"TEME","TLE_LINE1":"1 48663U 21044AB  21233.91668981 -.00044670  00000-0 -29971-2 0  9990","MEAN_MOTION":"15.06421765","EPOCH":"2021-08-21T22:00:01.999584","OBJECT_NAME":"STARLINK-2667","CENTER_NAME":"EARTH"},{"NORAD_CAT_ID":"48664","ECCENTRICITY":"0.00013750","OBJECT_TYPE":"PAYLOAD","TIME_SYSTEM":"UTC","INCLINATION":"53.0542","MEAN_ANOMALY":"284.1816","SITE":"AFETR","BSTAR":"-0.00287530000000","REF_FRAME":"TEME","DECAY_DATE":null,"FILE":"3101032","MEAN_ELEMENT_THEORY":"SGP4","RA_OF_ASC_NODE":"7.1046","PERIOD":"95.590","PERIAPSIS":"546.180","CENTER_NAME":"EARTH","OBJECT_NAME":"STARLINK-2709","TLE_LINE1":"1 48664U 21044AC  21233.91668981 -.00042883  00000-0 -28753-2 0  9992","MEAN_MOTION":"15.06426475","EPOCH":"2021-08-21T22:00:01.999584","MEAN_MOTION_DDOT":"0.0000000000000","OBJECT_ID":"2021-044AC","RCS_SIZE":"LARGE","CLASSIFICATION_TYPE":"U","EPHEMERIS_TYPE":"0","APOAPSIS":"548.085","SEMIMAJOR_AXIS":"6925.267","MEAN_MOTION_DOT":"-0.00042883","TLE_LINE2":"2 48664  53.0542   7.1046 0001375  89.2705 284.1816 15.06426475  3603","GP_ID":"183215385","REV_AT_EPOCH":"360","ELEMENT_SET_NO":"999","ARG_OF_PERICENTER":"89.2705","COUNTRY_CODE":"US","LAUNCH_DATE":"2021-05-26"},{"OBJECT_TYPE":"PAYLOAD","ECCENTRICITY":"0.00011900","NORAD_CAT_ID":"48665","BSTAR":"-0.00228500000000","MEAN_ANOMALY":"207.4119","SITE":"AFETR","INCLINATION":"53.0544","TIME_SYSTEM":"UTC","PERIAPSIS":"546.328","PERIOD":"95.591","RA_OF_ASC_NODE":"7.1036","MEAN_ELEMENT_THEORY":"SGP4","DECAY_DATE":null,"FILE":"3101032","REF_FRAME":"TEME","MEAN_MOTION":"15.06420062","TLE_LINE1":"1 48665U 21044AD  21233.91668981 -.00034172  00000-0 -22850-2 0  9997","OBJECT_NAME":"STARLINK-2653","EPOCH":"2021-08-21T22:00:01.999584","CENTER_NAME":"EARTH","EPHEMERIS_TYPE":"0","CLASSIFICATION_TYPE":"U","RCS_SIZE":"LARGE","OBJECT_ID":"2021-044AD","MEAN_MOTION_DDOT":"0.0000000000000","GP_ID":"183215543","TLE_LINE2":"2 48665  53.0544   7.1036 0001190  91.1709 207.4119 15.06420062  3594","MEAN_MOTION_DOT":"-0.00034172","SEMIMAJOR_AXIS":"6925.287","APOAPSIS":"547.976","REV_AT_EPOCH":"359","LAUNCH_DATE":"2021-05-26","COUNTRY_CODE":"US","ARG_OF_PERICENTER":"91.1709","ELEMENT_SET_NO":"999"}];
